0 COSMOS 1275 DEB
1 13018U 81053EQ  13281.85817436  .00000970  00000-0  80613-3 0  4898
2 13018 082.6781 059.8949 0056092 157.9625 326.4224 13.87025239601592
0 COSMOS 1275 DEB
1 13018U 81053EQ  13282.86854531  .00000914  00000-0  75814-3 0  4904
2 13018 082.6782 059.1026 0056104 155.1911 331.4124 13.87029329601739
0 COSMOS 1275 DEB
1 13018U 81053EQ  13284.15487655  .00001058  00000-0  87982-3 0  4917
2 13018 082.6784 058.0938 0056105 151.6695 274.3395 13.87031977601919
0 COSMOS 1275 DEB
1 13018U 81053EQ  13286.38884079  .00000935  00000-0  77589-3 0  4932
2 13018 082.6789 056.3419 0056077 145.5644 269.0201 13.87036445602220
0 COSMOS 1275 DEB
1 13018U 81053EQ  13287.40101111  .00001028  00000-0  85428-3 0  4941
2 13018 082.6791 055.5482 0056053 142.7918 283.0309 13.87038426602362
0 COSMOS 1275 DEB
1 13018U 81053EQ  13288.41010844  .00001281  00000-0  10675-2 0  4958
2 13018 082.6793 054.7569 0056026 140.0228 281.7113 13.87041395602509
0 COSMOS 1275 DEB
1 13018U 81053EQ  13289.79368162  .00001155  00000-0  96122-3 0  4962
2 13018 082.6795 053.6720 0055998 136.2287 350.2598 13.87045388602692
0 COSMOS 1275 DEB
1 13018U 81053EQ  13291.09099659  .00001150  00000-0  95697-3 0  4972
2 13018 082.6795 052.6548 0055915 132.7006 348.0840 13.87048092602878
0 COSMOS 1275 DEB
1 13018U 81053EQ  13292.37639681  .00001177  00000-0  97984-3 0  4980
2 13018 082.6794 051.6469 0055883 129.1531 286.4796 13.87050774603051
0 COSMOS 1275 DEB
1 13018U 81053EQ  13293.38778097  .00001238  00000-0  10310-2 0  4993
2 13018 082.6793 050.8536 0055857 126.3657 296.6355 13.87053230603194
0 COSMOS 1275 DEB
1 13018U 81053EQ  13294.48119531  .00001215  00000-0  10117-2 0  5000
2 13018 082.6792 049.9961 0055813 123.3591 356.3966 13.87056507603349
0 COSMOS 1275 DEB
1 13018U 81053EQ  13295.78057767  .00001271  00000-0  10594-2 0  5018
2 13018 082.6792 048.9770 0055726 119.7821 004.6394 13.87059394603529
